STARLINK-37097          
1 68238U 26054G   26091.76275152  .00206687  00000+0  10219-2 0  9990
2 68238  53.1592 196.9894 0001425  28.4983 331.6118 15.80957451  2422
STARLINK-37096          
1 68239U 26054H   26091.76124748  .00466625  00000+0  22227-2 0  9997
2 68239  53.1589 196.9787 0001348  64.1173 295.9988 15.81063587  2428
STARLINK-37092          
1 68240U 26054J   26091.76208391  .00443187  00000+0  21526-2 0  9995
2 68240  53.1592 196.9847 0000901 264.3006  95.7914 15.80699611  2421
STARLINK-37094          
1 68241U 26054K   26091.76050181  .00262841  00000+0  12890-2 0  9998
2 68241  53.1593 196.9737 0002067  26.4421 333.6707 15.80975482  2421
STARLINK-36356          
1 68242U 26054L   26091.57160111  .00811704  00000+0  37208-2 0  9991
2 68242  53.1594 197.9299 0002559   5.0330 355.0718 15.81003596  2390
STARLINK-36345          
1 68243U 26054M   26091.58423291  .00259397  00000+0  16382-2 0  9998
2 68243  53.1602 198.0132 0001049  97.6351 262.4789 15.75332787  2391
STARLINK-36310          
1 68244U 26054N   26091.63106243  .00109903  00000+0  55178-3 0  9994
2 68244  53.1594 197.5878 0001688  32.3230 327.7896 15.80932225  2409
STARLINK-36247          
1 68245U 26054P   26091.75824784  .00379362  00000+0  18297-2 0  9993
2 68245  53.1589 196.9589 0000877  83.1007 277.0116 15.81022213  2423
STARLINK-37043          
1 68246U 26054Q   26091.75674890  .00301020  00000+0  14679-2 0  9991
2 68246  53.1591 196.9485 0001230  47.0449 313.0677 15.80993408  2420
STARLINK-37044          
1 68247U 26054R   26091.75599593  .00247174  00000+0  12139-2 0  9996
2 68247  53.1596 196.9433 0000679  86.5411 273.5689 15.80988214  2424
STARLINK-36997          
1 68248U 26054S   26091.83335647  .00057044  00000+0  37435-3 0  9996
2 68248  53.1604 196.7233 0001048  77.3190 282.1200 15.75204433  3631
STARLINK-37141          
1 68249U 26054T   26091.83335647  .00021445  00000+0  14382-3 0  9999
2 68249  53.1596 196.5654 0001451  72.0422   4.6454 15.75221443  3712
STARLINK-37087          
1 68250U 26054U   26091.83335647  .00050644  00000+0  33298-3 0  9991
2 68250  53.1594 196.6220 0001108  73.5059 335.5657 15.75210151  3639
STARLINK-36274          
1 68251U 26054V   26091.83335647  .00020425  00000+0  13713-3 0  9996
2 68251  53.1599 196.6745 0001268  76.4332 306.8816 15.75232261  3678
STARLINK-37085          
1 68252U 26054W   26091.75224704  .00343427  00000+0  16643-2 0  9993
2 68252  53.1591 196.9181 0001017  45.1670 314.9435 15.81014336  2425
STARLINK-37086          
1 68253U 26054X   26091.75149690  .00209768  00000+0  10361-2 0  9994
2 68253  53.1594 196.9129 0001176 121.0455 239.0684 15.80970479  2423
STARLINK-37084          
1 68254U 26054Y   26091.74998820  .00118363  00000+0  59246-3 0  9997
2 68254  53.1591 196.9032 0002066  52.2273 307.8937 15.80966056  2427
