[{"OBJECT_NAME":"STARLINK-37097","OBJECT_ID":"2026-054G","EPOCH":"2026-04-01T18:18:21.731328","MEAN_MOTION":15.80957451,"ECCENTRICITY":0.0001425,"INCLINATION":53.1592,"RA_OF_ASC_NODE":196.9894,"ARG_OF_PERICENTER":28.4983,"MEAN_ANOMALY":331.6118,"EPHEMERIS_TYPE":0,"CLASSIFICATION_TYPE":"U","NORAD_CAT_ID":68238,"ELEMENT_SET_NO":999,"REV_AT_EPOCH":242,"BSTAR":0.0010219,"MEAN_MOTION_DOT":0.00206687,"MEAN_MOTION_DDOT":0},{"OBJECT_NAME":"STARLINK-37096","OBJECT_ID":"2026-054H","EPOCH":"2026-04-01T18:16:11.782272","MEAN_MOTION":15.81063587,"ECCENTRICITY":0.0001348,"INCLINATION":53.1589,"RA_OF_ASC_NODE":196.9787,"ARG_OF_PERICENTER":64.1173,"MEAN_ANOMALY":295.9988,"EPHEMERIS_TYPE":0,"CLASSIFICATION_TYPE":"U","NORAD_CAT_ID":68239,"ELEMENT_SET_NO":999,"REV_AT_EPOCH":242,"BSTAR":0.0022227,"MEAN_MOTION_DOT":0.00466625,"MEAN_MOTION_DDOT":0},{"OBJECT_NAME":"STARLINK-37092","OBJECT_ID":"2026-054J","EPOCH":"2026-04-01T18:17:24.049824","MEAN_MOTION":15.80699611,"ECCENTRICITY":9.01e-5,"INCLINATION":53.1592,"RA_OF_ASC_NODE":196.9847,"ARG_OF_PERICENTER":264.3006,"MEAN_ANOMALY":95.7914,"EPHEMERIS_TYPE":0,"CLASSIFICATION_TYPE":"U","NORAD_CAT_ID":68240,"ELEMENT_SET_NO":999,"REV_AT_EPOCH":242,"BSTAR":0.0021526,"MEAN_MOTION_DOT":0.00443187,"MEAN_MOTION_DDOT":0},{"OBJECT_NAME":"STARLINK-37094","OBJECT_ID":"2026-054K","EPOCH":"2026-04-01T18:15:07.356384","MEAN_MOTION":15.80975482,"ECCENTRICITY":0.0002067,"INCLINATION":53.1593,"RA_OF_ASC_NODE":196.9737,"ARG_OF_PERICENTER":26.4421,"MEAN_ANOMALY":333.6707,"EPHEMERIS_TYPE":0,"CLASSIFICATION_TYPE":"U","NORAD_CAT_ID":68241,"ELEMENT_SET_NO":999,"REV_AT_EPOCH":242,"BSTAR":0.001289,"MEAN_MOTION_DOT":0.00262841,"MEAN_MOTION_DDOT":0},{"OBJECT_NAME":"STARLINK-36356","OBJECT_ID":"2026-054L","EPOCH":"2026-04-01T13:43:06.335904","MEAN_MOTION":15.81003596,"ECCENTRICITY":0.0002559,"INCLINATION":53.1594,"RA_OF_ASC_NODE":197.9299,"ARG_OF_PERICENTER":5.033,"MEAN_ANOMALY":355.0718,"EPHEMERIS_TYPE":0,"CLASSIFICATION_TYPE":"U","NORAD_CAT_ID":68242,"ELEMENT_SET_NO":999,"REV_AT_EPOCH":239,"BSTAR":0.0037208,"MEAN_MOTION_DOT":0.00811704,"MEAN_MOTION_DDOT":0},{"OBJECT_NAME":"STARLINK-36345","OBJECT_ID":"2026-054M","EPOCH":"2026-04-01T14:01:17.723424","MEAN_MOTION":15.75332787,"ECCENTRICITY":0.0001049,"INCLINATION":53.1602,"RA_OF_ASC_NODE":198.0132,"ARG_OF_PERICENTER":97.6351,"MEAN_ANOMALY":262.4789,"EPHEMERIS_TYPE":0,"CLASSIFICATION_TYPE":"U","NORAD_CAT_ID":68243,"ELEMENT_SET_NO":999,"REV_AT_EPOCH":239,"BSTAR":0.0016382,"MEAN_MOTION_DOT":0.00259397,"MEAN_MOTION_DDOT":0},{"OBJECT_NAME":"STARLINK-36310","OBJECT_ID":"2026-054N","EPOCH":"2026-04-01T15:08:43.793952","MEAN_MOTION":15.80932225,"ECCENTRICITY":0.0001688,"INCLINATION":53.1594,"RA_OF_ASC_NODE":197.5878,"ARG_OF_PERICENTER":32.323,"MEAN_ANOMALY":327.7896,"EPHEMERIS_TYPE":0,"CLASSIFICATION_TYPE":"U","NORAD_CAT_ID":68244,"ELEMENT_SET_NO":999,"REV_AT_EPOCH":240,"BSTAR":0.00055178,"MEAN_MOTION_DOT":0.00109903,"MEAN_MOTION_DDOT":0},{"OBJECT_NAME":"STARLINK-36247","OBJECT_ID":"2026-054P","EPOCH":"2026-04-01T18:11:52.613376","MEAN_MOTION":15.81022213,"ECCENTRICITY":8.77e-5,"INCLINATION":53.1589,"RA_OF_ASC_NODE":196.9589,"ARG_OF_PERICENTER":83.1007,"MEAN_ANOMALY":277.0116,"EPHEMERIS_TYPE":0,"CLASSIFICATION_TYPE":"U","NORAD_CAT_ID":68245,"ELEMENT_SET_NO":999,"REV_AT_EPOCH":242,"BSTAR":0.0018297,"MEAN_MOTION_DOT":0.00379362,"MEAN_MOTION_DDOT":0},{"OBJECT_NAME":"STARLINK-37043","OBJECT_ID":"2026-054Q","EPOCH":"2026-04-01T18:09:43.104960","MEAN_MOTION":15.80993408,"ECCENTRICITY":0.000123,"INCLINATION":53.1591,"RA_OF_ASC_NODE":196.9485,"ARG_OF_PERICENTER":47.0449,"MEAN_ANOMALY":313.0677,"EPHEMERIS_TYPE":0,"CLASSIFICATION_TYPE":"U","NORAD_CAT_ID":68246,"ELEMENT_SET_NO":999,"REV_AT_EPOCH":242,"BSTAR":0.0014679,"MEAN_MOTION_DOT":0.0030102,"MEAN_MOTION_DDOT":0},{"OBJECT_NAME":"STARLINK-37044","OBJECT_ID":"2026-054R","EPOCH":"2026-04-01T18:08:38.048352","MEAN_MOTION":15.80988214,"ECCENTRICITY":6.79e-5,"INCLINATION":53.1596,"RA_OF_ASC_NODE":196.9433,"ARG_OF_PERICENTER":86.5411,"MEAN_ANOMALY":273.5689,"EPHEMERIS_TYPE":0,"CLASSIFICATION_TYPE":"U","NORAD_CAT_ID":68247,"ELEMENT_SET_NO":999,"REV_AT_EPOCH":242,"BSTAR":0.0012139,"MEAN_MOTION_DOT":0.00247174,"MEAN_MOTION_DDOT":0},{"OBJECT_NAME":"STARLINK-36997","OBJECT_ID":"2026-054S","EPOCH":"2026-04-01T20:00:01.999008","MEAN_MOTION":15.75204433,"ECCENTRICITY":0.0001048,"INCLINATION":53.1604,"RA_OF_ASC_NODE":196.7233,"ARG_OF_PERICENTER":77.319,"MEAN_ANOMALY":282.12,"EPHEMERIS_TYPE":0,"CLASSIFICATION_TYPE":"U","NORAD_CAT_ID":68248,"ELEMENT_SET_NO":999,"REV_AT_EPOCH":363,"BSTAR":0.00037435,"MEAN_MOTION_DOT":0.00057044,"MEAN_MOTION_DDOT":0},{"OBJECT_NAME":"STARLINK-37141","OBJECT_ID":"2026-054T","EPOCH":"2026-04-01T20:00:01.999008","MEAN_MOTION":15.75221443,"ECCENTRICITY":0.0001451,"INCLINATION":53.1596,"RA_OF_ASC_NODE":196.5654,"ARG_OF_PERICENTER":72.0422,"MEAN_ANOMALY":4.6454,"EPHEMERIS_TYPE":0,"CLASSIFICATION_TYPE":"U","NORAD_CAT_ID":68249,"ELEMENT_SET_NO":999,"REV_AT_EPOCH":371,"BSTAR":0.00014382,"MEAN_MOTION_DOT":0.00021445,"MEAN_MOTION_DDOT":0},{"OBJECT_NAME":"STARLINK-37087","OBJECT_ID":"2026-054U","EPOCH":"2026-04-01T20:00:01.999008","MEAN_MOTION":15.75210151,"ECCENTRICITY":0.0001108,"INCLINATION":53.1594,"RA_OF_ASC_NODE":196.622,"ARG_OF_PERICENTER":73.5059,"MEAN_ANOMALY":335.5657,"EPHEMERIS_TYPE":0,"CLASSIFICATION_TYPE":"U","NORAD_CAT_ID":68250,"ELEMENT_SET_NO":999,"REV_AT_EPOCH":363,"BSTAR":0.00033298,"MEAN_MOTION_DOT":0.00050644,"MEAN_MOTION_DDOT":0},{"OBJECT_NAME":"STARLINK-36274","OBJECT_ID":"2026-054V","EPOCH":"2026-04-01T20:00:01.999008","MEAN_MOTION":15.75232261,"ECCENTRICITY":0.0001268,"INCLINATION":53.1599,"RA_OF_ASC_NODE":196.6745,"ARG_OF_PERICENTER":76.4332,"MEAN_ANOMALY":306.8816,"EPHEMERIS_TYPE":0,"CLASSIFICATION_TYPE":"U","NORAD_CAT_ID":68251,"ELEMENT_SET_NO":999,"REV_AT_EPOCH":367,"BSTAR":0.00013713,"MEAN_MOTION_DOT":0.00020425,"MEAN_MOTION_DDOT":0},{"OBJECT_NAME":"STARLINK-37085","OBJECT_ID":"2026-054W","EPOCH":"2026-04-01T18:03:14.144256","MEAN_MOTION":15.81014336,"ECCENTRICITY":0.0001017,"INCLINATION":53.1591,"RA_OF_ASC_NODE":196.9181,"ARG_OF_PERICENTER":45.167,"MEAN_ANOMALY":314.9435,"EPHEMERIS_TYPE":0,"CLASSIFICATION_TYPE":"U","NORAD_CAT_ID":68252,"ELEMENT_SET_NO":999,"REV_AT_EPOCH":242,"BSTAR":0.0016643,"MEAN_MOTION_DOT":0.00343427,"MEAN_MOTION_DDOT":0},{"OBJECT_NAME":"STARLINK-37086","OBJECT_ID":"2026-054X","EPOCH":"2026-04-01T18:02:09.332160","MEAN_MOTION":15.80970479,"ECCENTRICITY":0.0001176,"INCLINATION":53.1594,"RA_OF_ASC_NODE":196.9129,"ARG_OF_PERICENTER":121.0455,"MEAN_ANOMALY":239.0684,"EPHEMERIS_TYPE":0,"CLASSIFICATION_TYPE":"U","NORAD_CAT_ID":68253,"ELEMENT_SET_NO":999,"REV_AT_EPOCH":242,"BSTAR":0.0010361,"MEAN_MOTION_DOT":0.00209768,"MEAN_MOTION_DDOT":0},{"OBJECT_NAME":"STARLINK-37084","OBJECT_ID":"2026-054Y","EPOCH":"2026-04-01T17:59:58.980480","MEAN_MOTION":15.80966056,"ECCENTRICITY":0.0002066,"INCLINATION":53.1591,"RA_OF_ASC_NODE":196.9032,"ARG_OF_PERICENTER":52.2273,"MEAN_ANOMALY":307.8937,"EPHEMERIS_TYPE":0,"CLASSIFICATION_TYPE":"U","NORAD_CAT_ID":68254,"ELEMENT_SET_NO":999,"REV_AT_EPOCH":242,"BSTAR":0.00059246,"MEAN_MOTION_DOT":0.00118363,"MEAN_MOTION_DDOT":0}]
